*******************************************************************************
 Revised: May 11, 2021           Hubble Space Telescope                     -48
                                 http://hubblesite.org
 
 BACKGROUND:
  Launched: April 24, 1990 [from space shuttle Discovery (STS-31)]
  Deployed: April 25, 1990
 
  NOTE: HST ephemeris data can be unreliable during times of the following
        space shuttle servicing missions
 
         Servicing Mission 1 : 1993 (December 02-14)
         Servicing Mission 2 : 1997 (February 11-21)
         Servicing Mission 3A: 1999 (December 19-28)
         Servicing Mission 3B: 2002 (March    01-12)
         Servicing Mission 4 : 2009 (May      11-25)
 
 HUBBLE SPACE TELESCOPE:
   Length          : 43.5 ft (13.2 m)   Weight      : 24,500 lb (11,110 kg)
   Maximum Diameter: 14 ft (4.2 m)      Data return : ~120 Gigabytes (GB)/week
 
 Generic orbit facts:
   Altitude     : 569 km, or 353 miles  Inclination  : 28.5 deg. to equator
   Orbit period : 97 minutes            Orbital speed: 28,000 kph (17500 mph)
 
 SPACECRAFT TRAJECTORY:
   The trajectory here is a concatenation of publicly released JSpOC two-line
   elements. These can usually only be propagated reliably "days" into the
   future, and are updated frequently to maintain accuracy.
*******************************************************************************
 
 
*******************************************************************************
Ephemeris / WWW_USER Tue May 11 20:21:10 2021 Pasadena, USA      / Horizons
*******************************************************************************
Target body name: Hubble Space Telescope (-48)    {source: hst}
Center body name: Solar System Barycenter (0)     {source: DE441}
Center-site name: BODY CENTER
*******************************************************************************
Start time      : A.D. 2020-Apr-07 19:04:23.2666 TDB
Stop  time      : A.D. 2020-Apr-08 02:34:03.2186 TDB
Step-size       : 5 minutes
*******************************************************************************
Center geodetic : 0.00000000,0.00000000,0.0000000 {E-lon(deg),Lat(deg),Alt(km)}
Center cylindric: 0.00000000,0.00000000,0.0000000 {E-lon(deg),Dxy(km),Dz(km)}
Center radii    : (undefined)                                                  
Output units    : KM-S
Output type     : GEOMETRIC cartesian states
Output format   : 3 (position, velocity, LT, range, range-rate)
Reference frame : ICRF
*******************************************************************************
JDTDB
   X     Y     Z
   VX    VY    VZ
   LT    RG    RR
*******************************************************************************
$$SOE
2458947.378047067 = A.D. 2020-Apr-07 21:04:23.2666 TDB 
 X =-1.429596202180989E+08 Y =-4.200062872915004E+07 Z =-1.819700145347402E+07
 VX= 6.985721567592908E+00 VY=-3.340004169930202E+01 VZ=-1.199233435126042E+01
 LT= 5.007088922161642E+02 RG= 1.501087495399409E+08 RR= 4.146135226800227E+00
2458947.381519289 = A.D. 2020-Apr-07 21:09:23.2666 TDB 
 X =-1.429571917617726E+08 Y =-4.201067255166242E+07 Z =-1.820077046056794E+07
 VX= 9.217035007781661E+00 VY=-3.342389403123709E+01 VZ=-1.311123295452989E+01
 LT= 5.007120770082483E+02 RG= 1.501097043165880E+08 RR= 2.166104912444709E+00
2458947.384991511 = A.D. 2020-Apr-07 21:14:23.2666 TDB 
 X =-1.429540943704382E+08 Y =-4.202060339140623E+07 Z =-1.820484847490406E+07
 VX= 1.140480097416187E+01 VY=-3.265369667094660E+01 VZ=-1.403361301367135E+01
 LT= 5.007131590162799E+02 RG= 1.501100286944354E+08 RR=-1.835426465443552E-02
2458947.388463733 = A.D. 2020-Apr-07 21:19:23.2666 TDB 
 X =-1.429503769073584E+08 Y =-4.203019345848293E+07 Z =-1.820916090954413E+07
 VX= 1.331330942508609E+01 VY=-3.117278792796939E+01 VZ=-1.465980178684191E+01
 LT= 5.007120506884922E+02 RG= 1.501096964261236E+08 RR=-2.171755796397500E+00
2458947.391935955 = A.D. 2020-Apr-07 21:24:23.2666 TDB 
 X =-1.429461550316583E+08 Y =-4.203925183003687E+07 Z =-1.821360786037457E+07
 VX= 1.473706601938306E+01 VY=-2.914138284224987E+01 VZ=-1.492225788084371E+01
 LT= 5.007089006115667E+02 RG= 1.501087520568193E+08 RR=-4.061967274724837E+00
2458947.395408178 = A.D. 2020-Apr-07 21:29:23.2666 TDB 
 X =-1.429415986467408E+08 Y =-4.204764509397873E+07 Z =-1.821807496158478E+07
 VX= 1.552327836670282E+01 VY=-2.677911704452205E+01 VZ=-1.479299762931813E+01
 LT= 5.007040773336979E+02 RG= 1.501073060744914E+08 RR=-5.485565615511062E+00
2458947.398880400 = A.D. 2020-Apr-07 21:34:23.2666 TDB 
 X =-1.429369134214070E+08 Y =-4.205531167746968E+07 Z =-1.822244581706426E+07
 VX= 1.558845078562594E+01 VY=-2.434082091175047E+01 VZ=-1.428655943852987E+01
 LT= 5.006981291394122E+02 RG= 1.501055228507058E+08 RR=-6.290029555061263E+00
2458947.402352622 = A.D. 2020-Apr-07 21:39:23.2666 TDB 
 X =-1.429323184913229E+08 Y =-4.206226825655680E+07 Z =-1.822661459438687E+07
 VX= 1.492700378550510E+01 VY=-2.208852501436977E+01 VZ=-1.345812637893450E+01
 LT= 5.006917243865774E+02 RG= 1.501036027541106E+08 RR=-6.389997937256397E+00
2458947.405824844 = A.D. 2020-Apr-07 21:44:23.2666 TDB 
 X =-1.429280228900231E+08 Y =-4.206860764380130E+07 Z =-1.823049736888077E+07
 VX= 1.361111305496262E+01 VY=-2.026322939232332E+01 VZ=-1.239718456080763E+01
 LT= 5.006855793489504E+02 RG= 1.501017605181759E+08 RR=-5.775793620715623E+00
2458947.409297067 = A.D. 2020-Apr-07 21:49:23.2666 TDB 
 X =-1.429242032926583E+08 Y =-4.207448858221407E+07 Z =-1.823404101349935E+07
 VX= 1.178230237406675E+01 VY=-1.905964920127006E+01 VZ=-1.121769691811332E+01
 LT= 5.006803816645573E+02 RG= 1.501002022915958E+08 RR=-4.513699722194814E+00
2458947.412769289 = A.D. 2020-Apr-07 21:54:23.2666 TDB 
 X =-1.429209853470537E+08 Y =-4.208011871309989E+07 Z =-1.823722877101412E+07
 VX= 9.636213349316547E+00 VY=-1.860626636435225E+01 VZ=-1.004602737537890E+01
 LT= 5.006767174372751E+02 RG= 1.500991037838922E+08 RR=-2.738534072704501E+00
2458947.416241511 = A.D. 2020-Apr-07 21:59:23.2666 TDB 
 X =-1.429184303826631E+08 Y =-4.208573254557263E+07 Z =-1.824008201638789E+07
 VX= 7.402272837142430E+00 VY=-1.895213758516918E+01 VZ=-9.007806725399099E+00
 LT= 5.006750091824119E+02 RG= 1.500985916619678E+08 RR=-6.396028573635790E-01
2458947.419713733 = A.D. 2020-Apr-07 22:04:23.2666 TDB 
 X =-1.429165287687353E+08 Y =-4.209156660423878E+07 Z =-1.824265805676447E+07
 VX= 5.319987070722843E+00 VY=-2.006141069091914E+01 VZ=-8.214822547891977E+00
 LT= 5.006754706269390E+02 RG= 1.500987299995568E+08 RR= 1.558722833753706E+00
2458947.423185955 = A.D. 2020-Apr-07 22:09:23.2666 TDB 
 X =-1.429152006587338E+08 Y =-4.209783418160114E+07 Z =-1.824504413886117E+07
 VX= 3.613746685419726E+00 VY=-2.181627702364552E+01 VZ=-7.753043688389647E+00
 LT= 5.006780830452952E+02 RG= 1.500995131828772E+08 RR= 3.620353542171837E+00
2458947.426658178 = A.D. 2020-Apr-07 22:14:23.2666 TDB 
 X =-1.429143042303543E+08 Y =-4.210470229070281E+07 Z =-1.824734818808753E+07
 VX= 2.468487243442277E+00 VY=-2.402868273625684E+01 VZ=-7.673032515317371E+00
 LT= 5.006825961195278E+02 RG= 1.501008661684945E+08 RR= 5.322760038029650E+00
2458947.430130400 = A.D. 2020-Apr-07 22:19:23.2666 TDB 
 X =-1.429136507501440E+08 Y =-4.211227338390868E+07 Z =-1.824968719213012E+07
 VX= 2.009025303511402E+00 VY=-2.646018295167018E+01 VZ=-7.984024144836638E+00
 LT= 5.006885539619350E+02 RG= 1.501026522847141E+08 RR= 6.481479481169047E+00
2458947.433602622 = A.D. 2020-Apr-07 22:24:23.2666 TDB 
 X =-1.429130249299767E+08 Y =-4.212057402001270E+07 Z =-1.825217448687264E+07
 VX= 2.285872443120727E+00 VY=-2.884796724716789E+01 VZ=-8.652635202469281E+00
 LT= 5.006953439809159E+02 RG= 1.501046878811943E+08 RR= 6.970744328955723E+00
2458947.437074844 = A.D. 2020-Apr-07 22:29:23.2666 TDB 
 X =-1.429122083014778E+08 Y =-4.212955187680133E+07 Z =-1.825490739532262E+07
 VX= 3.269534404693296E+00 VY=-3.093386779393730E+01 VZ=-9.606494411580579E+00
 LT= 5.007022632613314E+02 RG= 1.501067622292776E+08 RR= 6.737466433489224E+00
2458947.440547067 = A.D. 2020-Apr-07 22:34:23.2666 TDB 
 X =-1.429110029287976E+08 Y =-4.213908145243776E+07 Z =-1.825795663943439E+07
 VX= 4.853938234717038E+00 VY=-3.249266189431523E+01 VZ=-1.074229404106523E+01
 LT= 5.007085948477158E+02 RG= 1.501086603911228E+08 RR= 5.806874043321968E+00
2458947.444019289 = A.D. 2020-Apr-07 22:39:23.2666 TDB 
 X =-1.429092528007659E+08 Y =-4.214897772799342E+07 Z =-1.826135869757404E+07
 VX= 6.868254794466831E+00 VY=-3.335635642255485E+01 VZ=-1.193715274929960E+01
 LT= 5.007136852879302E+02 RG= 1.501101864667070E+08 RR= 4.279441698940995E+00
2458947.447491511 = A.D. 2020-Apr-07 22:44:23.2666 TDB 
 X =-1.429068606152120E+08 Y =-4.215901619687089E+07 Z =-1.826511189775650E+07
 VX= 9.095471719821592E+00 VY=-3.343203478951078E+01 VZ=-1.306191859565594E+01
 LT= 5.007170150156018E+02 RG= 1.501111846939501E+08 RR= 2.319839073618783E+00
2458947.450963733 = A.D. 2020-Apr-07 22:49:23.2666 TDB 
 X =-1.429037982319181E+08 Y =-4.216895708021013E+07 Z =-1.826917661944578E+07
 VX= 1.129567576823532E+01 VY=-3.271172594056494E+01 VZ=-1.399504032726468E+01
 LT= 5.007182542253746E+02 RG= 1.501115561996939E+08 RR= 1.392448415994813E-01
2458947.454435955 = A.D. 2020-Apr-07 22:54:23.2666 TDB 
 X =-1.429001097119520E+08 Y =-4.217857118616714E+07 Z =-1.827347957529441E+07
 VX= 1.323180985292301E+01 VY=-3.127338071813888E+01 VZ=-1.463568031252499E+01
 LT= 5.007172984301257E+02 RG= 1.501112696594869E+08 RR=-2.027267907646809E+00
2458947.457908178 = A.D. 2020-Apr-07 22:59:23.2666 TDB 
 X =-1.428959065697580E+08 Y =-4.218766467829855E+07 Z =-1.827792174653563E+07
 VX= 1.469538162797798E+01 VY=-2.927261871373652E+01 VZ=-1.491472576586295E+01
 LT= 5.007142797925026E+02 RG= 1.501103646946941E+08 RR=-3.946138351958402E+00
